[{"OBJECT_NAME":"STARLINK-31542","OBJECT_ID":"2024-045S","EPOCH":"2026-03-09T11:29:25.435104","MEAN_MOTION":15.27560483,"ECCENTRICITY":0.00012658,"INCLINATION":43.0024,"RA_OF_ASC_NODE":93.3421,"ARG_OF_PERICENTER":268.1619,"MEAN_ANOMALY":91.9087,"EPHEMERIS_TYPE":0,"CLASSIFICATION_TYPE":"U","NORAD_CAT_ID":59194,"ELEMENT_SET_NO":999,"REV_AT_EPOCH":11313,"BSTAR":-1.5162934e-5,"MEAN_MOTION_DOT":-6.79e-6,"MEAN_MOTION_DDOT":0},{"OBJECT_NAME":"FENGYUN 1C DEB","OBJECT_ID":"1999-025AQG","EPOCH":"2026-03-09T10:43:06.043872","MEAN_MOTION":15.25746961,"ECCENTRICITY":0.00178142,"INCLINATION":98.9311,"RA_OF_ASC_NODE":250.2123,"ARG_OF_PERICENTER":328.3876,"MEAN_ANOMALY":31.6286,"EPHEMERIS_TYPE":0,"CLASSIFICATION_TYPE":"U","NORAD_CAT_ID":30674,"ELEMENT_SET_NO":999,"REV_AT_EPOCH":98658,"BSTAR":0.015201752,"MEAN_MOTION_DOT":0.00411052,"MEAN_MOTION_DDOT":0}]
